[{"OBJECT_NAME":"STARLINK-34294","OBJECT_ID":"2025-137F","EPOCH":"2026-03-09T21:23:18.013344","MEAN_MOTION":15.30210458,"ECCENTRICITY":0.00010242,"INCLINATION":53.1587,"RA_OF_ASC_NODE":334.4547,"ARG_OF_PERICENTER":106.1711,"MEAN_ANOMALY":253.9403,"EPHEMERIS_TYPE":0,"CLASSIFICATION_TYPE":"U","NORAD_CAT_ID":64599,"ELEMENT_SET_NO":999,"REV_AT_EPOCH":4076,"BSTAR":0.00086245036,"MEAN_MOTION_DOT":0.00025279,"MEAN_MOTION_DDOT":0},{"OBJECT_NAME":"SPACEMOBILE-005 DEB","OBJECT_ID":"2024-163K","EPOCH":"2026-03-09T07:33:15.902496","MEAN_MOTION":15.31481997,"ECCENTRICITY":0.00072885,"INCLINATION":52.9762,"RA_OF_ASC_NODE":31.7924,"ARG_OF_PERICENTER":175.8731,"MEAN_ANOMALY":184.2329,"EPHEMERIS_TYPE":0,"CLASSIFICATION_TYPE":"U","NORAD_CAT_ID":62373,"ELEMENT_SET_NO":999,"REV_AT_EPOCH":8280,"BSTAR":0.00063853778,"MEAN_MOTION_DOT":0.00019381,"MEAN_MOTION_DDOT":0}]
